[
    {
        "Altitude(m)": 716802.644360585,
        "Argument of Periapsis(deg)": 0.006834072711976239,
        "Eccentricity": 0.0,
        "Inclination(deg)": 45.0,
        "Latitude(deg)": -42.53470076547563,
        "Longitude(deg)": 30.404835533993264,
        "Mean Anomaly(deg)": -107.62557001151157,
        "RAAN(deg)": 244.9935488351251,
        "Satellite Name": "Constellation 1 1093",
        "Satellite Number": 1093,
        "Semi-Major Axis(m)": 7083131.272910544,
        "Time(s)": 114
    },
    {
        "Altitude(m)": 716809.8935052144,
        "Argument of Periapsis(deg)": 0.006894020718221645,
        "Eccentricity": 0.0,
        "Inclination(deg)": 45.0,
        "Latitude(deg)": -42.552223971026635,
        "Longitude(deg)": 30.47922391087877,
        "Mean Anomaly(deg)": -107.56486887126165,
        "RAAN(deg)": 244.99349224595952,
        "Satellite Name": "Constellation 1 1093",
        "Satellite Number": 1093,
        "Semi-Major Axis(m)": 7083131.272910544,
        "Time(s)": 115
    },
    {
        "Altitude(m)": 716817.1201987591,
        "Argument of Periapsis(deg)": 0.006953968724467052,
        "Eccentricity": 0.0,
        "Inclination(deg)": 45.0,
        "Latitude(deg)": -42.56969332456379,
        "Longitude(deg)": 30.5536560446288,
        "Mean Anomaly(deg)": -107.5041677310117,
        "RAAN(deg)": 244.99343565679396,
        "Satellite Name": "Constellation 1 1093",
        "Satellite Number": 1093,
        "Semi-Major Axis(m)": 7083131.272910544,
        "Time(s)": 116
    },
    {
        "Altitude(m)": 716824.3244146554,
        "Argument of Periapsis(deg)": 0.007013916730712457,
        "Eccentricity": 0.0,
        "Inclination(deg)": 45.0,
        "Latitude(deg)": -42.5871087639437,
        "Longitude(deg)": 30.628131851653357,
        "Mean Anomaly(deg)": -107.44346659076186,
        "RAAN(deg)": 244.9933790676284,
        "Satellite Name": "Constellation 1 1093",
        "Satellite Number": 1093,
        "Semi-Major Axis(m)": 7083131.272910544,
        "Time(s)": 117
    },
    {
        "Altitude(m)": 716831.5061264299,
        "Argument of Periapsis(deg)": 0.007073864736957864,
        "Eccentricity": 0.0,
        "Inclination(deg)": 45.0,
        "Latitude(deg)": -42.6044702271262,
        "Longitude(deg)": 30.702651247806568,
        "Mean Anomaly(deg)": -107.38276545051193,
        "RAAN(deg)": 244.99332247846283,
        "Satellite Name": "Constellation 1 1093",
        "Satellite Number": 1093,
        "Semi-Major Axis(m)": 7083131.272910544,
        "Time(s)": 118
    },
    {
        "Altitude(m)": 716838.6653076765,
        "Argument of Periapsis(deg)": 0.0071338127432032696,
        "Eccentricity": 0.0,
        "Inclination(deg)": 45.0,
        "Latitude(deg)": -42.62177765217528,
        "Longitude(deg)": 30.777213980288884,
        "Mean Anomaly(deg)": -107.32206431026205,
        "RAAN(deg)": 244.99326588929728,
        "Satellite Name": "Constellation 1 1093",
        "Satellite Number": 1093,
        "Semi-Major Axis(m)": 7083131.272910544,
        "Time(s)": 119
    },
    {
        "Altitude(m)": 716845.8019320859,
        "Argument of Periapsis(deg)": 0.007193760749448674,
        "Eccentricity": 0.0,
        "Inclination(deg)": 45.0,
        "Latitude(deg)": -42.63903097725912,
        "Longitude(deg)": 30.851820300035243,
        "Mean Anomaly(deg)": -107.26136317001213,
        "RAAN(deg)": 244.99320930013167,
        "Satellite Name": "Constellation 1 1093",
        "Satellite Number": 1093,
        "Semi-Major Axis(m)": 7083131.272910544,
        "Time(s)": 120
    },
    {
        "Altitude(m)": 716852.9159734197,
        "Argument of Periapsis(deg)": 0.007253708755694079,
        "Eccentricity": 0.0,
        "Inclination(deg)": 45.0,
        "Latitude(deg)": -42.65623014065243,
        "Longitude(deg)": 30.926469953132976,
        "Mean Anomaly(deg)": -107.2006620297622,
        "RAAN(deg)": 244.99315271096611,
        "Satellite Name": "Constellation 1 1093",
        "Satellite Number": 1093,
        "Semi-Major Axis(m)": 7083131.272910544,
        "Time(s)": 121
    },
    {
        "Altitude(m)": 716860.0074055234,
        "Argument of Periapsis(deg)": 0.0073136567619394854,
        "Eccentricity": 0.0,
        "Inclination(deg)": 45.0,
        "Latitude(deg)": -42.673375080736314,
        "Longitude(deg)": 31.0011628532091,
        "Mean Anomaly(deg)": -107.13996088951235,
        "RAAN(deg)": 244.99309612180056,
        "Satellite Name": "Constellation 1 1093",
        "Satellite Number": 1093,
        "Semi-Major Axis(m)": 7083131.272910544,
        "Time(s)": 122
    },
    {
        "Altitude(m)": 716867.0762023258,
        "Argument of Periapsis(deg)": 0.0073736047681848904,
        "Eccentricity": 0.0,
        "Inclination(deg)": 45.0,
        "Latitude(deg)": -42.69046573599948,
        "Longitude(deg)": 31.075898913333695,
        "Mean Anomaly(deg)": -107.07925974926249,
        "RAAN(deg)": 244.99303953263498,
        "Satellite Name": "Constellation 1 1093",
        "Satellite Number": 1093,
        "Semi-Major Axis(m)": 7083131.272910544,
        "Time(s)": 123
    },
    {
        "Altitude(m)": 716874.1223378428,
        "Argument of Periapsis(deg)": 0.007433552774430298,
        "Eccentricity": 0.0,
        "Inclination(deg)": 45.0,
        "Latitude(deg)": -42.707502045038986,
        "Longitude(deg)": 31.150678046019728,
        "Mean Anomaly(deg)": -107.01855860901254,
        "RAAN(deg)": 244.99298294346943,
        "Satellite Name": "Constellation 1 1093",
        "Satellite Number": 1093,
        "Semi-Major Axis(m)": 7083131.272910544,
        "Time(s)": 124
    },
    {
        "Altitude(m)": 716881.1457861604,
        "Argument of Periapsis(deg)": 0.007493500780675703,
        "Eccentricity": 0.0,
        "Inclination(deg)": 45.0,
        "Latitude(deg)": -42.72448394656124,
        "Longitude(deg)": 31.22550016322218,
        "Mean Anomaly(deg)": -106.95785746876261,
        "RAAN(deg)": 244.99292635430385,
        "Satellite Name": "Constellation 1 1093",
        "Satellite Number": 1093,
        "Semi-Major Axis(m)": 7083131.272910544,
        "Time(s)": 125
    },
    {
        "Altitude(m)": 716888.1465214606,
        "Argument of Periapsis(deg)": 0.007553448786921108,
        "Eccentricity": 0.0,
        "Inclination(deg)": 45.0,
        "Latitude(deg)": -42.7414113793831,
        "Longitude(deg)": 31.300365008241705,
        "Mean Anomaly(deg)": -106.89715632851279,
        "RAAN(deg)": 244.99286976513827,
        "Satellite Name": "Constellation 1 1093",
        "Satellite Number": 1093,
        "Semi-Major Axis(m)": 7083131.272910544,
        "Time(s)": 126
    },
    {
        "Altitude(m)": 716895.1245179947,
        "Argument of Periapsis(deg)": 0.007613396793166514,
        "Eccentricity": 0.0,
        "Inclination(deg)": 45.0,
        "Latitude(deg)": -42.75828428243175,
        "Longitude(deg)": 31.37527282811264,
        "Mean Anomaly(deg)": -106.83645518826286,
        "RAAN(deg)": 244.99281317597269,
        "Satellite Name": "Constellation 1 1093",
        "Satellite Number": 1093,
        "Semi-Major Axis(m)": 7083131.272910544,
        "Time(s)": 127
    },
    {
        "Altitude(m)": 716902.0797501098,
        "Argument of Periapsis(deg)": 0.007673344799411918,
        "Eccentricity": 0.0,
        "Inclination(deg)": 45.0,
        "Latitude(deg)": -42.7751025947471,
        "Longitude(deg)": 31.450223365020125,
        "Mean Anomaly(deg)": -106.7757540480129,
        "RAAN(deg)": 244.99275658680713,
        "Satellite Name": "Constellation 1 1093",
        "Satellite Number": 1093,
        "Semi-Major Axis(m)": 7083131.272910544,
        "Time(s)": 128
    },
    {
        "Altitude(m)": 716909.0121922271,
        "Argument of Periapsis(deg)": 0.007733292805657325,
        "Eccentricity": 0.0,
        "Inclination(deg)": 45.0,
        "Latitude(deg)": -42.79186625548168,
        "Longitude(deg)": 31.525216528688265,
        "Mean Anomaly(deg)": -106.71505290776304,
        "RAAN(deg)": 244.99269999764158,
        "Satellite Name": "Constellation 1 1093",
        "Satellite Number": 1093,
        "Semi-Major Axis(m)": 7083131.272910544,
        "Time(s)": 129
    },
    {
        "Altitude(m)": 716915.9218188513,
        "Argument of Periapsis(deg)": 0.00779324081190273,
        "Eccentricity": 0.0,
        "Inclination(deg)": 45.0,
        "Latitude(deg)": -42.80857520390174,
        "Longitude(deg)": 31.60025222828376,
        "Mean Anomaly(deg)": -106.65435176751319,
        "RAAN(deg)": 244.99264340847603,
        "Satellite Name": "Constellation 1 1093",
        "Satellite Number": 1093,
        "Semi-Major Axis(m)": 7083131.272910544,
        "Time(s)": 130
    },
    {
        "Altitude(m)": 716922.8086045694,
        "Argument of Periapsis(deg)": 0.007853188818148135,
        "Eccentricity": 0.0,
        "Inclination(deg)": 45.0,
        "Latitude(deg)": -42.825229379388304,
        "Longitude(deg)": 31.67533037241499,
        "Mean Anomaly(deg)": -106.59365062726317,
        "RAAN(deg)": 244.99258681931042,
        "Satellite Name": "Constellation 1 1093",
        "Satellite Number": 1093,
        "Semi-Major Axis(m)": 7083131.272910544,
        "Time(s)": 131
    },
    {
        "Altitude(m)": 716929.6725240567,
        "Argument of Periapsis(deg)": 0.007913136824393542,
        "Eccentricity": 0.0,
        "Inclination(deg)": 45.0,
        "Latitude(deg)": -42.84182872143774,
        "Longitude(deg)": 31.75045086913221,
        "Mean Anomaly(deg)": -106.53294948701334,
        "RAAN(deg)": 244.99253023014484,
        "Satellite Name": "Constellation 1 1093",
        "Satellite Number": 1093,
        "Semi-Major Axis(m)": 7083131.272910544,
        "Time(s)": 132
    }
]